{"type": "FeatureCollection", "features": [ {"type": "Feature", "properties": {"norad_id": 30612, "name": "FENGYUN 1C DEB", "group": "fengyun-1c-debris", "lat": 14.215692427251286, "lon": 151.42942497375947, "alt_km": 503.6855527326761, "timestamp": "2025-12-07T03:52:32.774797+00:00", "meta": {"OBJECT_NAME": "FENGYUN 1C DEB", "OBJECT_ID": "1999-025AMT", "EPOCH": "2025-12-06T10:32:09.917088", "MEAN_MOTION": 15.27934707, "ECCENTRICITY": 0.00336791, "INCLINATION": 99.0824, "RA_OF_ASC_NODE": 328.2275, "ARG_OF_PERICENTER": 9.5451, "MEAN_ANOMALY": 143.8268, "EPHEMERIS_TYPE": 0, "CLASSIFICATION_TYPE": "U", "NORAD_CAT_ID": 30612, "ELEMENT_SET_NO": 999, "REV_AT_EPOCH": 161, "BSTAR": 0.0062437056, "MEAN_MOTION_DOT": 0.00176829, "MEAN_MOTION_DDOT": 0}, "tle": {"line1": "1 30612U 99025AMT 25340.43900367  .00176829  00000+0  62437-2 0  9999", "line2": "2 30612  99.0824 328.2275 0033679   9.5451 143.8268 15.27934707  1612"}}, "geometry": {"type": "Point", "coordinates": [151.42942497375947, 14.215692427251286]}}, {"type": "Feature", "properties": {"norad_id": 30613, "name": "FENGYUN 1C DEB", "group": "fengyun-1c-debris", "lat": 12.971948300739548, "lon": -77.69258746209046, "alt_km": 473.82255685163636, "timestamp": "2025-12-07T03:52:32.774807+00:00", "meta": {"OBJECT_NAME": "FENGYUN 1C DEB", "OBJECT_ID": "1999-025AMU", "EPOCH": "2025-12-06T06:32:32.909568", "MEAN_MOTION": 15.15506984, "ECCENTRICITY": 0.00707611, "INCLINATION": 98.3086, "RA_OF_ASC_NODE": 99.4065, "ARG_OF_PERICENTER": 188.8834, "MEAN_ANOMALY": 171.1149, "EPHEMERIS_TYPE": 0, "CLASSIFICATION_TYPE": "U", "NORAD_CAT_ID": 30613, "ELEMENT_SET_NO": 999, "REV_AT_EPOCH": 99298, "BSTAR": 0.0075999396, "MEAN_MOTION_DOT": 0.00156209, "MEAN_MOTION_DDOT": 0}, "tle": {"line1": "1 30613U 99025AMU 25340.27260312  .00156209  00000+0  75999-2 0  9998", "line2": "2 30613  98.3086  99.4065 0070761 188.8834 171.1149 15.15506984992988"}}, "geometry": {"type": "Point", "coordinates": [-77.69258746209046, 12.971948300739548]}}, {"type": "Feature", "properties": {"norad_id": 30616, "name": "FENGYUN 1C DEB", "group": "fengyun-1c-debris", "lat": -77.3976725572743, "lon": 83.05383796327027, "alt_km": 850.3831177105412, "timestamp": "2025-12-07T03:52:32.774818+00:00", "meta": {"OBJECT_NAME": "FENGYUN 1C DEB", "OBJECT_ID": "1999-025AMX", "EPOCH": "2025-12-05T21:42:22.174848", "MEAN_MOTION": 13.35981923, "ECCENTRICITY": 0.03793477, "INCLINATION": 98.641, "RA_OF_ASC_NODE": 39.1319, "ARG_OF_PERICENTER": 273.1214, "MEAN_ANOMALY": 82.6585, "EPHEMERIS_TYPE": 0, "CLASSIFICATION_TYPE": "U", "NORAD_CAT_ID": 30616, "ELEMENT_SET_NO": 999, "REV_AT_EPOCH": 91609, "BSTAR": 0.0026964888, "MEAN_MOTION_DOT": 2.043e-05, "MEAN_MOTION_DDOT": 0}, "tle": {"line1": "1 30616U 99025AMX 25339.90442332  .00002043  00000+0  26965-2 0  9998", "line2": "2 30616  98.6410  39.1319 0379347 273.1214  82.6585 13.35981923916098"}}, "geometry": {"type": "Point", "coordinates": [83.05383796327027, -77.3976725572743]}}, {"type": "Feature", "properties": {"norad_id": 30619, "name": "FENGYUN 1C DEB", "group": "fengyun-1c-debris", "lat": -73.55724812833944, "lon": 33.883074498047435, "alt_km": 896.2793404092927, "timestamp": "2025-12-07T03:52:32.774829+00:00", "meta": {"OBJECT_NAME": "FENGYUN 1C DEB", "OBJECT_ID": "1999-025ANA", "EPOCH": "2025-12-06T08:14:08.187648", "MEAN_MOTION": 14.41071099, "ECCENTRICITY": 0.02161661, "INCLINATION": 98.2962, "RA_OF_ASC_NODE": 3.4579, "ARG_OF_PERICENTER": 77.7022, "MEAN_ANOMALY": 284.8277, "EPHEMERIS_TYPE": 0, "CLASSIFICATION_TYPE": "U", "NORAD_CAT_ID": 30619, "ELEMENT_SET_NO": 999, "REV_AT_EPOCH": 98857, "BSTAR": 0.0005347614, "MEAN_MOTION_DOT": 2.225e-05, "MEAN_MOTION_DDOT": 0}, "tle": {"line1": "1 30619U 99025ANA 25340.34315032  .00002225  00000+0  53476-3 0  9997", "line2": "2 30619  98.2962   3.4579 0216166  77.7022 284.8277 14.41071099988573"}}, "geometry": {"type": "Point", "coordinates": [33.883074498047435, -73.55724812833944]}}, {"type": "Feature", "properties": {"norad_id": 30621, "name": "FENGYUN 1C DEB", "group": "fengyun-1c-debris", "lat": -62.838923645435585, "lon": -57.82067336432658, "alt_km": 797.5704430563956, "timestamp": "2025-12-07T03:52:32.774840+00:00", "meta": {"OBJECT_NAME": "FENGYUN 1C DEB", "OBJECT_ID": "1999-025ANC", "EPOCH": "2025-12-06T08:22:19.865856", "MEAN_MOTION": 14.03736799, "ECCENTRICITY": 0.01385391, "INCLINATION": 98.6977, "RA_OF_ASC_NODE": 284.0429, "ARG_OF_PERICENTER": 324.4806, "MEAN_ANOMALY": 187.6777, "EPHEMERIS_TYPE": 0, "CLASSIFICATION_TYPE": "U", "NORAD_CAT_ID": 30621, "ELEMENT_SET_NO": 999, "REV_AT_EPOCH": 95500, "BSTAR": 0.0049376134, "MEAN_MOTION_DOT": 8.425e-05, "MEAN_MOTION_DDOT": 0}, "tle": {"line1": "1 30621U 99025ANC 25340.34884104  .00008425  00000+0  49376-2 0  9992", "line2": "2 30621  98.6977 284.0429 0138539 324.4806 187.6777 14.03736799955006"}}, "geometry": {"type": "Point", "coordinates": [-57.82067336432658, -62.838923645435585]}}, {"type": "Feature", "properties": {"norad_id": 30622, "name": "FENGYUN 1C DEB", "group": "fengyun-1c-debris", "lat": -6.120474567649372, "lon": -7.572912812429058, "alt_km": 749.6897310633703, "timestamp": "2025-12-07T03:52:32.774851+00:00", "meta": {"OBJECT_NAME": "FENGYUN 1C DEB", "OBJECT_ID": "1999-025AND", "EPOCH": "2025-12-05T06:41:26.691360", "MEAN_MOTION": 14.31010694, "ECCENTRICITY": 0.00725582, "INCLINATION": 101.0015, "RA_OF_ASC_NODE": 348.8541, "ARG_OF_PERICENTER": 35.2074, "MEAN_ANOMALY": 345.0178, "EPHEMERIS_TYPE": 0, "CLASSIFICATION_TYPE": "U", "NORAD_CAT_ID": 30622, "ELEMENT_SET_NO": 999, "REV_AT_EPOCH": 68691, "BSTAR": 0.00612372, "MEAN_MOTION_DOT": 0.00016566, "MEAN_MOTION_DDOT": 0}, "tle": {"line1": "1 30622U 99025AND 25339.27878115  .00016566  00000+0  61237-2 0  9993", "line2": "2 30622 101.0015 348.8541 0072558  35.2074 345.0178 14.31010694686911"}}, "geometry": {"type": "Point", "coordinates": [-7.572912812429058, -6.120474567649372]}}, {"type": "Feature", "properties": {"norad_id": 30623, "name": "FENGYUN 1C DEB", "group": "fengyun-1c-debris", "lat": 72.60547692019705, "lon": 130.9548240907983, "alt_km": 927.0464178974898, "timestamp": "2025-12-07T03:52:32.774861+00:00", "meta": {"OBJECT_NAME": "FENGYUN 1C DEB", "OBJECT_ID": "1999-025ANE", "EPOCH": "2025-12-06T06:40:18.751584", "MEAN_MOTION": 13.29331494, "ECCENTRICITY": 0.0403848, "INCLINATION": 98.8232, "RA_OF_ASC_NODE": 159.918, "ARG_OF_PERICENTER": 123.7589, "MEAN_ANOMALY": 48.6422, "EPHEMERIS_TYPE": 0, "CLASSIFICATION_TYPE": "U", "NORAD_CAT_ID": 30623, "ELEMENT_SET_NO": 999, "REV_AT_EPOCH": 91130, "BSTAR": 0.00089640881, "MEAN_MOTION_DOT": 6.17e-06, "MEAN_MOTION_DDOT": 0}, "tle": {"line1": "1 30623U 99025ANE 25340.27799481  .00000617  00000+0  89641-3 0  9994", "line2": "2 30623  98.8232 159.9180 0403848 123.7589  48.6422 13.29331494911302"}}, "geometry": {"type": "Point", "coordinates": [130.9548240907983, 72.60547692019705]}}, {"type": "Feature", "properties": {"norad_id": 30624, "name": "FENGYUN 1C DEB", "group": "fengyun-1c-debris", "lat": 18.35278498715297, "lon": 59.76777969753406, "alt_km": 688.2379850728166, "timestamp": "2025-12-07T03:52:32.774871+00:00", "meta": {"OBJECT_NAME": "FENGYUN 1C DEB", "OBJECT_ID": "1999-025ANF", "EPOCH": "2025-12-05T04:09:10.347552", "MEAN_MOTION": 14.6176874, "ECCENTRICITY": 0.00210678, "INCLINATION": 98.8881, "RA_OF_ASC_NODE": 60.6071, "ARG_OF_PERICENTER": 290.528, "MEAN_ANOMALY": 69.3658, "EPHEMERIS_TYPE": 0, "CLASSIFICATION_TYPE": "U", "NORAD_CAT_ID": 30624, "ELEMENT_SET_NO": 999, "REV_AT_EPOCH": 97385, "BSTAR": 0.0095402737, "MEAN_MOTION_DOT": 0.00048021, "MEAN_MOTION_DDOT": 0}, "tle": {"line1": "1 30624U 99025ANF 25339.17303643  .00048021  00000+0  95403-2 0  9996", "line2": "2 30624  98.8881  60.6071 0021067 290.5280  69.3658 14.61768740973854"}}, "geometry": {"type": "Point", "coordinates": [59.76777969753406, 18.35278498715297]}}, {"type": "Feature", "properties": {"norad_id": 30625, "name": "FENGYUN 1C DEB", "group": "fengyun-1c-debris", "lat": 28.253125419588187, "lon": -67.97653991389336, "alt_km": 740.4099704179744, "timestamp": "2025-12-07T03:52:32.774882+00:00", "meta": {"OBJECT_NAME": "FENGYUN 1C DEB", "OBJECT_ID": "1999-025ANG", "EPOCH": "2025-12-06T07:45:00.343296", "MEAN_MOTION": 14.41224363, "ECCENTRICITY": 0.00508887, "INCLINATION": 98.9294, "RA_OF_ASC_NODE": 295.9945, "ARG_OF_PERICENTER": 321.2504, "MEAN_ANOMALY": 38.5038, "EPHEMERIS_TYPE": 0, "CLASSIFICATION_TYPE": "U", "NORAD_CAT_ID": 30625, "ELEMENT_SET_NO": 999, "REV_AT_EPOCH": 96600, "BSTAR": 0.0087206215, "MEAN_MOTION_DOT": 0.00028668, "MEAN_MOTION_DDOT": 0}, "tle": {"line1": "1 30625U 99025ANG 25340.32292064  .00028668  00000+0  87206-2 0  9997", "line2": "2 30625  98.9294 295.9945 0050888 321.2504  38.5038 14.41224363966006"}}, "geometry": {"type": "Point", "coordinates": [-67.97653991389336, 28.253125419588187]}}, {"type": "Feature", "properties": {"norad_id": 30628, "name": "FENGYUN 1C DEB", "group": "fengyun-1c-debris", "lat": -41.62061657361514, "lon": 67.6942327947994, "alt_km": 659.6266389170496, "timestamp": "2025-12-07T03:52:32.774893+00:00", "meta": {"OBJECT_NAME": "FENGYUN 1C DEB", "OBJECT_ID": "1999-025ANK", "EPOCH": "2025-12-06T12:09:00.700704", "MEAN_MOTION": 14.68734019, "ECCENTRICITY": 0.00233835, "INCLINATION": 99.3405, "RA_OF_ASC_NODE": 255.3555, "ARG_OF_PERICENTER": 267.9787, "MEAN_ANOMALY": 91.8737, "EPHEMERIS_TYPE": 0, "CLASSIFICATION_TYPE": "U", "NORAD_CAT_ID": 30628, "ELEMENT_SET_NO": 999, "REV_AT_EPOCH": 98379, "BSTAR": 0.0051200086, "MEAN_MOTION_DOT": 0.00030025, "MEAN_MOTION_DDOT": 0}, "tle": {"line1": "1 30628U 99025ANK 25340.50625811  .00030025  00000+0  51200-2 0  9995", "line2": "2 30628  99.3405 255.3555 0023383 267.9787  91.8737 14.68734019983790"}}, "geometry": {"type": "Point", "coordinates": [67.6942327947994, -41.62061657361514]}}]}